SL-16 R/B               
1 23405U 94077B   26198.08212835  .00000034  00000+0  41764-4 0  9998
2 23405  70.9821  80.2696 0004103 301.9446  58.1278 14.15574322634546
ARIANE 40+ R/B          
1 23561U 95021B   26198.20585874  .00000113  00000+0  49737-4 0  9997
2 23561  98.4399 267.8452 0007946 111.3729 267.5651 14.39848217637886
SL-16 R/B               
1 23705U 95058B   26198.16600784  .00000254  00000+0  15433-3 0  9991
2 23705  71.0208 268.4177 0014629 280.2644  79.6829 14.15509802586173
SL-16 R/B               
1 24298U 96051B   26198.20040434  .00000151  00000+0  10848-3 0  9999
2 24298  70.7645 261.1336 0017930 295.5028  64.4236 14.12457307539937
ORBVIEW 2 (SEASTAR)     
1 24883U 97037A   26198.40866895  .00000082  00000+0  44594-4 0  9992
2 24883  98.8715   6.2695 0003020  56.5195 303.6278 14.35567345527083
SL-16 R/B               
1 25400U 98043G   26198.60287619  .00000002  00000+0  20057-4 0  9999
2 25400  98.8380 153.0266 0009910   4.6257 355.5013 14.26072921457502
SL-16 R/B               
1 25407U 98045B   26198.60783270 -.00000081  00000+0 -16894-4 0  9995
2 25407  71.0105 268.3548 0008050 202.9731 157.1034 14.16204925445498
ISS (ZARYA)             
1 25544U 98067A   26198.57280181  .00003563  00000+0  72724-4 0  9990
2 25544  51.6316 149.7201 0006795 306.9083  53.1282 15.49033131576463
CZ-4B R/B               
1 25732U 99025C   26198.63318016 -.00000003  00000+0  19565-4 0  9991
2 25732  98.6471 239.7031 0036519 332.6413 183.5566 14.18287951406580
OKEAN-O                 
1 25860U 99039A   26198.62634029  .00000239  00000+0  37969-4 0  9990
2 25860  97.9300 257.0721 0000873  92.5724 267.5588 14.80498868453618
SL-16 R/B               
1 25861U 99039B   26198.61988716  .00000208  00000+0  33040-4 0  9997
2 25861  97.9822 257.3936 0014504 190.3788 169.7128 14.81872032456102
DELTA 2 R/B             
1 25876U 99041E   26198.54051994  .00000969  00000+0  19466-3 0  9996
2 25876  51.7612 142.5249 0501426  11.6800 349.5274 14.12090679381378
HELIOS 1B               
1 25977U 99064A   26198.16910966  .00000610  00000+0  72684-4 0  9999
2 25977  98.1581 104.1735 0001811  52.1499 307.9880 14.88077720704512
TERRA                   
1 25994U 99068A   26198.64676432  .00000157  00000+0  40921-4 0  9997
2 25994  97.9440 246.9828 0003502 117.8782  37.1255 14.61124733414056
SL-16 R/B               
1 26070U 00006B   26198.37428263 -.00000010  00000+0  19087-4 0  9992
2 26070  71.0002 185.1511 0017279 337.0009  23.0339 14.15837987366915
TITAN 4B R/B            
1 26474U 00047B   26198.59079458  .00001181  00000+0  78649-4 0  9995
2 26474  67.9873  34.9826 0045766 256.3765 103.2286 15.10339508412520
ENVISAT                 
1 27386U 02009A   26198.65535924  .00000016  00000+0  18996-4 0  9995
2 27386  98.3847 149.2970 0001316  83.0570  90.6451 14.39070996277866
IDEFIX & ARIANE 42P R/B 
1 27422U 02021B   26198.26374811  .00000080  00000+0  46854-4 0  9998
2 27422  98.5941 135.4218 0012023 160.4674 199.6972 14.31094255262552
AQUA                    
1 27424U 02022A   26198.58046432  .00000321  00000+0  73618-4 0  9997
2 27424  98.4298 168.4748 0001229 101.3800 349.9230 14.62130356287712
CZ-4B R/B               
1 27432U 02024C   26198.08101090 -.00000002  00000+0  22050-4 0  9996
2 27432  98.8684 250.7044 0050371  16.6655   1.5139 14.14568410247534
MIDORI II (ADEOS-II)    
1 27597U 02056A   26198.58858912  .00000088  00000+0  52485-4 0  9998
2 27597  98.7895 158.1100 0001383  37.6039 322.5239 14.29363660228858
H-2A R/B                
1 27601U 02056E   26198.66838016  .00000113  00000+0  53810-4 0  9998
2 27601  98.3329 154.2347 0071006 133.6359  38.6654 14.33834616232730
CZ-4B R/B               
1 28059U 03049C   26198.48721039  .00000106  00000+0  36062-4 0  9997
2 28059  98.6911 198.5420 0047770 194.2092 165.7764 14.55116881205475
CZ-2C R/B               
1 28222U 04012C   26197.82281371  .00112094  00000+0  46138-3 0  9991
2 28222  97.7045 277.0808 0011035 186.1120 174.0017 15.85560346224585
SL-16 R/B               
1 28353U 04021B   26198.63811684 -.00000083  00000+0 -18452-4 0  9997
2 28353  71.0029 319.7819 0006217 223.0787 136.9849 14.14616501141213
CZ-4B R/B               
1 28415U 04035C   26198.52787322  .00003704  00000+0  12464-3 0  9997
2 28415  97.3352 231.2656 0029415 223.9665 135.9236 15.31010002199764
CZ-2C R/B               
1 28480U 04046B   26198.13146946  .00000062  00000+0  37678-4 0  9998
2 28480  98.1913 105.0364 0140237 131.7007 229.6273 14.27033576126963
ARIANE 5 R/B            
1 28499U 04049H   26198.44187993  .00000215  00000+0  30739-4 0  9993
2 28499  98.2744  11.8688 0082570 290.8867  68.3521 14.85480144165053
CZ-2D R/B               
1 28738U 05024B   26198.53312864  .00041686  00000+0  30694-3 0  9996
2 28738  97.3465 219.5529 0002789 185.1412 174.9824 15.72953861160105
ALOS (DAICHI)           
1 28931U 06002A   26198.31109744  .00000470  00000+0  86527-4 0  9998
2 28931  98.1339 153.7884 0000867 104.8146 255.3156 14.70104183 92523
