OBJECT_NAME,OBJECT_ID,EPOCH,MEAN_MOTION,ECCENTRICITY,INCLINATION,RA_OF_ASC_NODE,ARG_OF_PERICENTER,MEAN_ANOMALY,EPHEMERIS_TYPE,CLASSIFICATION_TYPE,NORAD_CAT_ID,ELEMENT_SET_NO,REV_AT_EPOCH,BSTAR,MEAN_MOTION_DOT,MEAN_MOTION_DDOT
SL-16 R/B,1994-077B,2026-07-17T01:58:15.889440,14.15574322,.00041038,70.9821,80.2696,301.9446,58.1278,0,U,23405,999,63454,.41763816E-4,.34E-6,0
ARIANE 40+ R/B,1995-021B,2026-07-17T04:56:26.195136,14.39848217,.00079464,98.4399,267.8452,111.3729,267.5651,0,U,23561,999,63788,.49737148E-4,.113E-5,0
SL-16 R/B,1995-058B,2026-07-17T03:59:03.077376,14.15509802,.00146294,71.0208,268.4177,280.2644,79.6829,0,U,23705,999,58617,.15433369E-3,.254E-5,0
SL-16 R/B,1996-051B,2026-07-17T04:48:34.934976,14.12457307,.00179305,70.7645,261.1336,295.5028,64.4236,0,U,24298,999,53993,.1084759E-3,.151E-5,0
ORBVIEW 2 (SEASTAR),1997-037A,2026-07-17T09:48:28.997280,14.35567345,.00030205,98.8715,6.2695,56.5195,303.6278,0,U,24883,999,52708,.44593728E-4,.82E-6,0
SL-16 R/B,1998-043G,2026-07-17T14:28:08.502816,14.26072921,.00099105,98.8380,153.0266,4.6257,355.5013,0,U,25400,999,45750,.20056511E-4,.2E-7,0
SL-16 R/B,1998-045B,2026-07-17T14:35:16.745280,14.16204925,.00080502,71.0105,268.3548,202.9731,157.1034,0,U,25407,999,44549,-.16894405E-4,-.81E-6,0
ISS (ZARYA),1998-067A,2026-07-17T13:44:50.076384,15.49033131,.0006795,51.6316,149.7201,306.9083,53.1282,0,U,25544,999,57646,.72723697E-4,.3563E-4,0
CZ-4B R/B,1999-025C,2026-07-17T15:11:46.765824,14.18287951,.00365192,98.6471,239.7031,332.6413,183.5566,0,U,25732,999,40658,.19565183E-4,-.3E-7,0
OKEAN-O,1999-039A,2026-07-17T15:01:55.801056,14.80498868,.0000873,97.9300,257.0721,92.5724,267.5588,0,U,25860,999,45361,.37969273E-4,.239E-5,0
SL-16 R/B,1999-039B,2026-07-17T14:52:38.250624,14.81872032,.00145047,97.9822,257.3936,190.3788,169.7128,0,U,25861,999,45610,.33040023E-4,.208E-5,0
DELTA 2 R/B,1999-041E,2026-07-17T12:58:20.922816,14.12090679,.05014267,51.7612,142.5249,11.6800,349.5274,0,U,25876,999,38137,.19466467E-3,.969E-5,0
HELIOS 1B,1999-064A,2026-07-17T04:03:31.074624,14.88077720,.00018119,98.1581,104.1735,52.1499,307.9880,0,U,25977,999,70451,.72684387E-4,.61E-5,0
TERRA,1999-068A,2026-07-17T15:31:20.437248,14.61124733,.00035023,97.9440,246.9828,117.8782,37.1255,0,U,25994,999,41405,.40921451E-4,.157E-5,0
SL-16 R/B,2000-006B,2026-07-17T08:58:58.019232,14.15837987,.00172792,71.0002,185.1511,337.0009,23.0339,0,U,26070,999,36691,.1908697E-4,-.1E-6,0
TITAN 4B R/B,2000-047B,2026-07-17T14:10:44.651712,15.10339508,.0045766,67.9873,34.9826,256.3765,103.2286,0,U,26474,999,41252,.78648824E-4,.1181E-4,0
ENVISAT,2002-009A,2026-07-17T15:43:43.038336,14.39070996,.00013169,98.3847,149.2970,83.0570,90.6451,0,U,27386,999,27786,.18996421E-4,.16E-6,0
IDEFIX & ARIANE 42P R/B,2002-021B,2026-07-17T06:19:47.836704,14.31094255,.00120234,98.5941,135.4218,160.4674,199.6972,0,U,27422,999,26255,.46854335E-4,.8E-6,0
AQUA,2002-022A,2026-07-17T13:55:52.117248,14.62130356,.00012297,98.4298,168.4748,101.3800,349.9230,0,U,27424,999,28771,.7361784E-4,.321E-5,0
CZ-4B R/B,2002-024C,2026-07-17T01:56:39.341760,14.14568410,.00503714,98.8684,250.7044,16.6655,1.5139,0,U,27432,999,24753,.22050292E-4,-.2E-7,0
MIDORI II (ADEOS-II),2002-056A,2026-07-17T14:07:34.099968,14.29363660,.00013838,98.7895,158.1100,37.6039,322.5239,0,U,27597,999,22885,.52484835E-4,.88E-6,0
H-2A R/B,2002-056E,2026-07-17T16:02:28.045824,14.33834616,.0071006,98.3329,154.2347,133.6359,38.6654,0,U,27601,999,23273,.53810141E-4,.113E-5,0
CZ-4B R/B,2003-049C,2026-07-17T11:41:34.977696,14.55116881,.00477709,98.6911,198.5420,194.2092,165.7764,0,U,28059,999,20547,.36061941E-4,.106E-5,0
CZ-2C R/B,2004-012C,2026-07-16T19:44:51.104544,15.85560346,.00110352,97.7045,277.0808,186.1120,174.0017,0,U,28222,999,22458,.46137866E-3,.112094E-2,0
SL-16 R/B,2004-021B,2026-07-17T15:18:53.294976,14.14616501,.00062172,71.0029,319.7819,223.0787,136.9849,0,U,28353,999,14121,-.18451783E-4,-.83E-6,0
CZ-4B R/B,2004-035C,2026-07-17T12:40:08.246208,15.31010002,.00294153,97.3352,231.2656,223.9665,135.9236,0,U,28415,999,19976,.12464059E-3,.3704E-4,0
CZ-2C R/B,2004-046B,2026-07-17T03:09:18.961344,14.27033576,.0140237,98.1913,105.0364,131.7007,229.6273,0,U,28480,999,12696,.37678107E-4,.62E-6,0
ARIANE 5 R/B,2004-049H,2026-07-17T10:36:18.425952,14.85480144,.00825708,98.2744,11.8688,290.8867,68.3521,0,U,28499,999,16505,.30739044E-4,.215E-5,0
CZ-2D R/B,2005-024B,2026-07-17T12:47:42.314496,15.72953861,.00027897,97.3465,219.5529,185.1412,174.9824,0,U,28738,999,16010,.30694492E-3,.41686E-3,0
ALOS (DAICHI),2006-002A,2026-07-17T07:27:58.818816,14.70104183,.00008678,98.1339,153.7884,104.8146,255.3156,0,U,28931,999,9252,.86526794E-4,.47E-5,0
